NOAA 15                 
1 25338U 98030A   22225.10812076  .00000127  00000+0  71176-4 0  9994
2 25338  98.6416 253.8948 0011336 128.9232 231.2961 14.26160360261346
NOAA 18                 
1 28654U 05018A   22225.14801474  .00000134  00000+0  96336-4 0  9999
2 28654  98.9464 295.5318 0014628 167.4354 192.7185 14.12763580888072
NOAA 19                 
1 33591U 09005A   22225.08489603  .00000139  00000+0  10034-3 0  9999
2 33591  99.1447 260.4017 0014381  32.9939 327.2126 14.12597749696440
METOP-B                 
1 38771U 12049A   22225.15299490  .00000062  00000+0  48300-4 0  9990
2 38771  98.6920 284.0560 0000569 127.2914 317.9995 14.21500876513784
SARAL                   
1 39086U 13009A   22225.12429345  .00000028  00000+0  26813-4 0  9995
2 39086  98.5487  49.9226 0002319  95.4491 264.6958 14.32056341494598
METOP-C                 
1 43689U 18087A   22225.10291941  .00000056  00000+0  45363-4 0  9999
2 43689  98.6802 284.1563 0001948 214.0848 146.0204 14.21500850195359
ANGELS                  
1 44876U 19092D   22225.08742048  .00001914  00000+0  96931-4 0  9992
2 44876  97.4755  47.7748 0012613 154.0268 206.1602 15.18147807146835
